SL-4 R/B                
1 39679U 14021B   26004.17804360  .00016278  00000+0  37936-3 0  9997
2 39679  51.6091 291.5035 0100010 227.4099 131.8415 15.37282910646342
ALOS-2                  
1 39766U 14029A   26004.87349080  .00005152  00000+0  69622-3 0  9998
2 39766  97.9218 104.3901 0001311  99.8292 260.3068 14.79470915627436
YAOGAN-29               
1 41038U 15069A   26004.82915903  .00001048  00000+0  13588-3 0  9996
2 41038  98.0197  33.0730 0001677 144.9051 215.2273 14.82914241546411
ASTRO-H (HITOMI)        
1 41337U 16012A   26004.43813736  .00004620  00000+0  27509-3 0  9992
2 41337  31.0013  51.0220 0009554  47.2892 312.8549 15.09533007542515
HXMT (HUIYAN)           
1 42758U 17034A   26004.84520237  .00007991  00000+0  40817-3 0  9992
2 42758  43.0155  11.3847 0032539 193.4260 166.5725 15.16577860472840
CZ-2C R/B               
1 43521U 18054D   26004.40218418  .00149063  00000+0  76203-3 0  9996
2 43521  35.1337  26.6286 0011708  11.1398 348.9594 15.79805476418635
SAOCOM 1A               
1 43641U 18076A   26004.76051789  .00000336  00000+0  48754-4 0  9998
2 43641  97.8840 193.8475 0001397  82.6237 277.5135 14.82164750391899
H-2A R/B                
1 43682U 18084L   26004.53125938  .00023813  00000+0  62339-3 0  9994
2 43682  98.8757 208.3522 0025930 246.1755 113.6767 15.38394378395908
SAOCOM 1B               
1 46265U 20059A   26004.85925209  .00000660  00000+0  89425-4 0  9994
2 46265  97.8836 193.0441 0001425  84.0431 276.0944 14.82169179289290
CSS (TIANHE)            
1 48274U 21035A   26004.83062512  .00014557  00000+0  17714-3 0  9999
2 48274  41.4652 236.4223 0010701 220.7184 139.2856 15.60176337267631
COSMOS 2550             
1 48865U 21056A   26004.41828530 -.00000167  00000+0  75036-6 0  9999
2 48865  67.1441 235.3376 0008460 269.5365  90.4820 15.33830382253604
CZ-2C R/B               
1 52794U 22058K   26004.19031066  .00035699  00000+0  60828-3 0  9990
2 52794  50.1911 288.9531 0043768 290.4488  69.1784 15.49899082200119
